CCSDS_OMM_VERS = 2.0
CREATION_DATE  = 
ORIGINATOR     = 

OBJECT_NAME    = DELTA 2 R/B(1)
OBJECT_ID      = 1990-008B
CENTER_NAME    = EARTH
REF_FRAME      = TEME
TIME_SYSTEM    = UTC
MEAN_ELEMENT_THEORY = SGP/SGP4

EPOCH          = 2026-02-28T12:23:30.924096
MEAN_MOTION    = 15.54550889
ECCENTRICITY   = .0087336
INCLINATION    = 35.6028
RA_OF_ASC_NODE = 234.9959
ARG_OF_PERICENTER = 173.5638
MEAN_ANOMALY   = 186.6237

EPHEMERIS_TYPE = 0
CLASSIFICATION_TYPE = U
NORAD_CAT_ID   = 20453
ELEMENT_SET_NO = 999
REV_AT_EPOCH   = 92470
BSTAR          = .80299E-3
MEAN_MOTION_DOT = .65372E-3
MEAN_MOTION_DDOT = 0

CCSDS_OMM_VERS = 2.0
CREATION_DATE  = 
ORIGINATOR     = 

OBJECT_NAME    = COSMOS 2058
OBJECT_ID      = 1990-010A
CENTER_NAME    = EARTH
REF_FRAME      = TEME
TIME_SYSTEM    = UTC
MEAN_ELEMENT_THEORY = SGP/SGP4

EPOCH          = 2026-02-28T10:40:29.148384
MEAN_MOTION    = 15.11222354
ECCENTRICITY   = .0010014
INCLINATION    = 82.4664
RA_OF_ASC_NODE = 56.5360
ARG_OF_PERICENTER = 14.1913
MEAN_ANOMALY   = 345.9596

EPHEMERIS_TYPE = 0
CLASSIFICATION_TYPE = U
NORAD_CAT_ID   = 20465
ELEMENT_SET_NO = 999
REV_AT_EPOCH   = 94084
BSTAR          = .25097E-3
MEAN_MOTION_DOT = .4248E-4
MEAN_MOTION_DDOT = 0

CCSDS_OMM_VERS = 2.0
CREATION_DATE  = 
ORIGINATOR     = 

OBJECT_NAME    = SL-14 R/B
OBJECT_ID      = 1990-010B
CENTER_NAME    = EARTH
REF_FRAME      = TEME
TIME_SYSTEM    = UTC
MEAN_ELEMENT_THEORY = SGP/SGP4

EPOCH          = 2026-02-28T02:37:37.213536
MEAN_MOTION    = 14.83559342
ECCENTRICITY   = .00191693
INCLINATION    = 82.4994
RA_OF_ASC_NODE = 276.3899
ARG_OF_PERICENTER = 335.6765
MEAN_ANOMALY   = 24.3543

EPHEMERIS_TYPE = 0
CLASSIFICATION_TYPE = U
NORAD_CAT_ID   = 20466
ELEMENT_SET_NO = 999
REV_AT_EPOCH   = 92706
BSTAR          = .47961514E-4
MEAN_MOTION_DOT = .42E-5
MEAN_MOTION_DDOT = 0

CCSDS_OMM_VERS = 2.0
CREATION_DATE  = 
ORIGINATOR     = 

OBJECT_NAME    = SL-14 R/B
OBJECT_ID      = 1990-018B
CENTER_NAME    = EARTH
REF_FRAME      = TEME
TIME_SYSTEM    = UTC
MEAN_ELEMENT_THEORY = SGP/SGP4

EPOCH          = 2026-02-28T10:56:06.711072
MEAN_MOTION    = 14.82132754
ECCENTRICITY   = .0017527
INCLINATION    = 82.5188
RA_OF_ASC_NODE = 231.7216
ARG_OF_PERICENTER = 120.0277
MEAN_ANOMALY   = 240.2678

EPHEMERIS_TYPE = 0
CLASSIFICATION_TYPE = U
NORAD_CAT_ID   = 20511
ELEMENT_SET_NO = 999
REV_AT_EPOCH   = 92121
BSTAR          = .68162E-4
MEAN_MOTION_DOT = .567E-5
MEAN_MOTION_DDOT = 0

CCSDS_OMM_VERS = 2.0
CREATION_DATE  = 
ORIGINATOR     = 

OBJECT_NAME    = HST
OBJECT_ID      = 1990-037B
CENTER_NAME    = EARTH
REF_FRAME      = TEME
TIME_SYSTEM    = UTC
MEAN_ELEMENT_THEORY = SGP/SGP4

EPOCH          = 2026-02-28T11:32:39.272640
MEAN_MOTION    = 15.29312143
ECCENTRICITY   = .000152
INCLINATION    = 28.4698
RA_OF_ASC_NODE = 102.8114
ARG_OF_PERICENTER = 31.9761
MEAN_ANOMALY   = 328.0927

EPHEMERIS_TYPE = 0
CLASSIFICATION_TYPE = U
NORAD_CAT_ID   = 20580
ELEMENT_SET_NO = 999
REV_AT_EPOCH   = 77190
BSTAR          = .25376E-3
MEAN_MOTION_DOT = .7656E-4
MEAN_MOTION_DDOT = 0

CCSDS_OMM_VERS = 2.0
CREATION_DATE  = 
ORIGINATOR     = 

OBJECT_NAME    = SL-16 R/B
OBJECT_ID      = 1990-046B
CENTER_NAME    = EARTH
REF_FRAME      = TEME
TIME_SYSTEM    = UTC
MEAN_ELEMENT_THEORY = SGP/SGP4

EPOCH          = 2026-02-28T10:28:39.966816
MEAN_MOTION    = 14.15015246
ECCENTRICITY   = .0016009
INCLINATION    = 71.0009
RA_OF_ASC_NODE = 317.3476
ARG_OF_PERICENTER = 312.1421
MEAN_ANOMALY   = 47.8340

EPHEMERIS_TYPE = 0
CLASSIFICATION_TYPE = U
NORAD_CAT_ID   = 20625
ELEMENT_SET_NO = 999
REV_AT_EPOCH   = 84708
BSTAR          = -.34292E-4
MEAN_MOTION_DOT = -.114E-5
MEAN_MOTION_DDOT = 0

CCSDS_OMM_VERS = 2.0
CREATION_DATE  = 
ORIGINATOR     = 

OBJECT_NAME    = COSMOS 2084
OBJECT_ID      = 1990-055A
CENTER_NAME    = EARTH
REF_FRAME      = TEME
TIME_SYSTEM    = UTC
MEAN_ELEMENT_THEORY = SGP/SGP4

EPOCH          = 2026-02-28T06:58:53.188896
MEAN_MOTION    = 15.05580737
ECCENTRICITY   = .0018472
INCLINATION    = 62.7915
RA_OF_ASC_NODE = 7.6307
ARG_OF_PERICENTER = 187.8103
MEAN_ANOMALY   = 172.2713

EPHEMERIS_TYPE = 0
CLASSIFICATION_TYPE = U
NORAD_CAT_ID   = 20663
ELEMENT_SET_NO = 999
REV_AT_EPOCH   = 93490
BSTAR          = .23148E-3
MEAN_MOTION_DOT = .3162E-4
MEAN_MOTION_DDOT = 0

CCSDS_OMM_VERS = 2.0
CREATION_DATE  = 
ORIGINATOR     = 

OBJECT_NAME    = SL-6 R/B(2)
OBJECT_ID      = 1990-055D
CENTER_NAME    = EARTH
REF_FRAME      = TEME
TIME_SYSTEM    = UTC
MEAN_ELEMENT_THEORY = SGP/SGP4

EPOCH          = 2026-02-28T07:51:13.065120
MEAN_MOTION    = 15.03542582
ECCENTRICITY   = .0023299
INCLINATION    = 62.7824
RA_OF_ASC_NODE = 285.6895
ARG_OF_PERICENTER = 344.6642
MEAN_ANOMALY   = 15.3748

EPHEMERIS_TYPE = 0
CLASSIFICATION_TYPE = U
NORAD_CAT_ID   = 20666
ELEMENT_SET_NO = 999
REV_AT_EPOCH   = 93678
BSTAR          = .16506E-3
MEAN_MOTION_DOT = .2075E-4
MEAN_MOTION_DDOT = 0

CCSDS_OMM_VERS = 2.0
CREATION_DATE  = 
ORIGINATOR     = 

OBJECT_NAME    = SL-8 R/B
OBJECT_ID      = 1990-078B
CENTER_NAME    = EARTH
REF_FRAME      = TEME
TIME_SYSTEM    = UTC
MEAN_ELEMENT_THEORY = SGP/SGP4

EPOCH          = 2026-02-28T12:04:24.066048
MEAN_MOTION    = 14.88707789
ECCENTRICITY   = .0364413
INCLINATION    = 82.8998
RA_OF_ASC_NODE = 259.5723
ARG_OF_PERICENTER = 44.8325
MEAN_ANOMALY   = 318.1724

EPHEMERIS_TYPE = 0
CLASSIFICATION_TYPE = U
NORAD_CAT_ID   = 20775
ELEMENT_SET_NO = 999
REV_AT_EPOCH   = 80793
BSTAR          = .45725E-3
MEAN_MOTION_DOT = .15577E-3
MEAN_MOTION_DDOT = 0

CCSDS_OMM_VERS = 2.0
CREATION_DATE  = 
ORIGINATOR     = 

OBJECT_NAME    = SL-8 R/B
OBJECT_ID      = 1991-006B
CENTER_NAME    = EARTH
REF_FRAME      = TEME
TIME_SYSTEM    = UTC
MEAN_ELEMENT_THEORY = SGP/SGP4

EPOCH          = 2026-02-28T11:22:22.716192
MEAN_MOTION    = 13.77493077
ECCENTRICITY   = .0023542
INCLINATION    = 82.9462
RA_OF_ASC_NODE = 176.8965
ARG_OF_PERICENTER = 63.1613
MEAN_ANOMALY   = 6.6802

EPHEMERIS_TYPE = 0
CLASSIFICATION_TYPE = U
NORAD_CAT_ID   = 21088
ELEMENT_SET_NO = 999
REV_AT_EPOCH   = 76280
BSTAR          = .2364E-4
MEAN_MOTION_DOT = .39E-6
MEAN_MOTION_DDOT = 0

CCSDS_OMM_VERS = 2.0
CREATION_DATE  = 
ORIGINATOR     = 

OBJECT_NAME    = OKEAN-3
OBJECT_ID      = 1991-039A
CENTER_NAME    = EARTH
REF_FRAME      = TEME
TIME_SYSTEM    = UTC
MEAN_ELEMENT_THEORY = SGP/SGP4

EPOCH          = 2026-02-28T07:16:09.893856
MEAN_MOTION    = 15.04726000
ECCENTRICITY   = .0014554
INCLINATION    = 82.5200
RA_OF_ASC_NODE = 345.9347
ARG_OF_PERICENTER = 10.7914
MEAN_ANOMALY   = 349.3621

EPHEMERIS_TYPE = 0
CLASSIFICATION_TYPE = U
NORAD_CAT_ID   = 21397
ELEMENT_SET_NO = 999
REV_AT_EPOCH   = 86362
BSTAR          = .23794E-3
MEAN_MOTION_DOT = .3385E-4
MEAN_MOTION_DDOT = 0

CCSDS_OMM_VERS = 2.0
CREATION_DATE  = 
ORIGINATOR     = 

OBJECT_NAME    = COSMOS 2151
OBJECT_ID      = 1991-042A
CENTER_NAME    = EARTH
REF_FRAME      = TEME
TIME_SYSTEM    = UTC
MEAN_ELEMENT_THEORY = SGP/SGP4

EPOCH          = 2026-02-28T11:28:27.517728
MEAN_MOTION    = 15.00062591
ECCENTRICITY   = .0014147
INCLINATION    = 82.4934
RA_OF_ASC_NODE = 92.5641
ARG_OF_PERICENTER = 91.1314
MEAN_ANOMALY   = 269.1531

EPHEMERIS_TYPE = 0
CLASSIFICATION_TYPE = U
NORAD_CAT_ID   = 21422
ELEMENT_SET_NO = 999
REV_AT_EPOCH   = 86181
BSTAR          = .13528E-3
MEAN_MOTION_DOT = .1714E-4
MEAN_MOTION_DDOT = 0

