DELTA 2 R/B(1)          
1 20453U 90008B   26059.51633014  .00065372  00000+0  80299-3 0  9999
2 20453  35.6028 234.9959 0087336 173.5638 186.6237 15.54550889924706
COSMOS 2058             
1 20465U 90010A   26059.44478181  .00004248  00000+0  25097-3 0  9999
2 20465  82.4664  56.5360 0010014  14.1913 345.9596 15.11222354940841
SL-14 R/B               
1 20466U 90010B   26059.10945849  .00000420  00000+0  47962-4 0  9997
2 20466  82.4994 276.3899 0019169 335.6765  24.3543 14.83559342927060
SL-14 R/B               
1 20511U 90018B   26059.45563323  .00000567  00000+0  68162-4 0  9994
2 20511  82.5188 231.7216 0017527 120.0277 240.2678 14.82132754921217
HST                     
1 20580U 90037B   26059.48101010  .00007656  00000+0  25376-3 0  9990
2 20580  28.4698 102.8114 0001520  31.9761 328.0927 15.29312143771902
SL-16 R/B               
1 20625U 90046B   26059.43657369 -.00000114  00000+0 -34292-4 0  9990
2 20625  71.0009 317.3476 0016009 312.1421  47.8340 14.15015246847087
COSMOS 2084             
1 20663U 90055A   26059.29089339  .00003162  00000+0  23148-3 0  9993
2 20663  62.7915   7.6307 0018472 187.8103 172.2713 15.05580737934901
SL-6 R/B(2)             
1 20666U 90055D   26059.32723455  .00002075  00000+0  16506-3 0  9996
2 20666  62.7824 285.6895 0023299 344.6642  15.3748 15.03542582936784
SL-8 R/B                
1 20775U 90078B   26059.50305632  .00015577  00000+0  45725-3 0  9991
2 20775  82.8998 259.5723 0364413  44.8325 318.1724 14.88707789807939
SL-8 R/B                
1 21088U 91006B   26059.47387403  .00000039  00000+0  23640-4 0  9993
2 21088  82.9462 176.8965 0023542  63.1613   6.6802 13.77493077762803
OKEAN-3                 
1 21397U 91039A   26059.30289229  .00003385  00000+0  23794-3 0  9997
2 21397  82.5200 345.9347 0014554  10.7914 349.3621 15.04726000863625
COSMOS 2151             
1 21422U 91042A   26059.47809627  .00001714  00000+0  13528-3 0  9996
2 21422  82.4934  92.5641 0014147  91.1314 269.1531 15.00062591861816
